start=new Date('2021-10-18T00:00:00.000Z').valueOf();
sats=[{"INCLINATION":"53.0535","CLASSIFICATION_TYPE":"U","OBJECT_NAME":"STARLINK-1708","COUNTRY_CODE":"US","LAUNCH_DATE":"2020-10-06","GP_ID":"187444421","NORAD_CAT_ID":"46580","PERIAPSIS":"546.125","MEAN_ELEMENT_THEORY":"SGP4","MEAN_MOTION":"15.06395102","FILE":"3168566","ARG_OF_PERICENTER":"64.6576","DECAY_DATE":null,"MEAN_MOTION_DOT":"0.00003348","MEAN_ANOMALY":"295.4578","EPHEMERIS_TYPE":"0","OBJECT_ID":"2020-070BA","EPOCH":"2021-10-17T04:28:38.015904","ECCENTRICITY":"0.00015940","APOAPSIS":"548.332","REV_AT_EPOCH":"5788","MEAN_MOTION_DDOT":"0.0000000000000","OBJECT_TYPE":"PAYLOAD","RA_OF_ASC_NODE":"164.5112","RCS_SIZE":"LARGE","ELEMENT_SET_NO":"999","TLE_LINE1":"1 46580U 20070BA  21290.18655111  .00003348  00000-0  24357-3 0  9996","BSTAR":"0.00024357000000","TIME_SYSTEM":"UTC","REF_FRAME":"TEME","SITE":"AFETR","TLE_LINE2":"2 46580  53.0535 164.5112 0001594  64.6576 295.4578 15.06395102 57889","PERIOD":"95.592","CENTER_NAME":"EARTH","SEMIMAJOR_AXIS":"6925.364"},{"OBJECT_TYPE":"PAYLOAD","RA_OF_ASC_NODE":"159.6567","MEAN_MOTION_DDOT":"0.0000000000000","REV_AT_EPOCH":"5794","ELEMENT_SET_NO":"999","RCS_SIZE":"LARGE","TLE_LINE2":"2 46581  53.0537 159.6567 0001789  62.7722 297.3449 15.06386468 57949","PERIOD":"95.593","CENTER_NAME":"EARTH","SITE":"AFETR","TIME_SYSTEM":"UTC","REF_FRAME":"TEME","TLE_LINE1":"1 46581U 20070BB  21290.15200815  .00002790  00000-0  20622-3 0  9992","BSTAR":"0.00020622000000","SEMIMAJOR_AXIS":"6925.390","CLASSIFICATION_TYPE":"U","INCLINATION":"53.0537","LAUNCH_DATE":"2020-10-06","OBJECT_NAME":"STARLINK-1712","COUNTRY_CODE":"US","MEAN_MOTION":"15.06386468","GP_ID":"187444671","PERIAPSIS":"546.016","NORAD_CAT_ID":"46581","MEAN_ELEMENT_THEORY":"SGP4","EPOCH":"2021-10-17T03:38:53.504160","ECCENTRICITY":"0.00017890","APOAPSIS":"548.494","OBJECT_ID":"2020-070BB","MEAN_MOTION_DOT":"0.00002790","EPHEMERIS_TYPE":"0","MEAN_ANOMALY":"297.3449","ARG_OF_PERICENTER":"62.7722","FILE":"3168566","DECAY_DATE":null},{"INCLINATION":"53.0545","CLASSIFICATION_TYPE":"U","LAUNCH_DATE":"2020-10-06","COUNTRY_CODE":"US","OBJECT_NAME":"STARLINK-1728","MEAN_MOTION":"15.06373568","GP_ID":"187445423","NORAD_CAT_ID":"46582","PERIAPSIS":"546.177","MEAN_ELEMENT_THEORY":"SGP4","OBJECT_ID":"2020-070BC","APOAPSIS":"548.412","ECCENTRICITY":"0.00016130","EPOCH":"2021-10-17T03:26:56.560416","DECAY_DATE":null,"ARG_OF_PERICENTER":"67.4437","FILE":"3168566","EPHEMERIS_TYPE":"0","MEAN_ANOMALY":"292.6722","MEAN_MOTION_DOT":"0.00001872","OBJECT_TYPE":"PAYLOAD","RA_OF_ASC_NODE":"159.7136","REV_AT_EPOCH":"5794","MEAN_MOTION_DDOT":"0.0000000000000","RCS_SIZE":"LARGE","ELEMENT_SET_NO":"999","SITE":"AFETR","CENTER_NAME":"EARTH","PERIOD":"95.594","TLE_LINE2":"2 46582  53.0545 159.7136 0001613  67.4437 292.6722 15.06373568 57942","BSTAR":"0.00014467000000","TLE_LINE1":"1 46582U 20070BC  21290.14371019  .00001872  00000-0  14467-3 0  9997","REF_FRAME":"TEME","TIME_SYSTEM":"UTC","SEMIMAJOR_AXIS":"6925.430"},{"RCS_SIZE":"LARGE","ELEMENT_SET_NO":"999","OBJECT_TYPE":"PAYLOAD","RA_OF_ASC_NODE":"179.5211","REV_AT_EPOCH":"5766","MEAN_MOTION_DDOT":"0.0000000000000","SEMIMAJOR_AXIS":"6925.363","SITE":"AFETR","TLE_LINE2":"2 46583  53.0540 179.5211 0001679  73.1218 286.9955 15.06395178 57669","CENTER_NAME":"EARTH","PERIOD":"95.592","TLE_LINE1":"1 46583U 20070BD  21290.18701709  .00003127  00000-0  22878-3 0  9995","BSTAR":"0.00022878000000","TIME_SYSTEM":"UTC","REF_FRAME":"TEME","LAUNCH_DATE":"2020-10-06","OBJECT_NAME":"STARLINK-1729","COUNTRY_CODE":"US","INCLINATION":"53.0540","CLASSIFICATION_TYPE":"U","OBJECT_ID":"2020-070BD","EPOCH":"2021-10-17T04:29:18.276576","ECCENTRICITY":"0.00016790","APOAPSIS":"548.391","FILE":"3168566","ARG_OF_PERICENTER":"73.1218","DECAY_DATE":null,"MEAN_MOTION_DOT":"0.00003127","EPHEMERIS_TYPE":"0","MEAN_ANOMALY":"286.9955","MEAN_MOTION":"15.06395178","PERIAPSIS":"546.066","GP_ID":"187445174","MEAN_ELEMENT_THEORY":"SGP4","NORAD_CAT_ID":"46583"},{"CLASSIFICATION_TYPE":"U","INCLINATION":"53.0531","LAUNCH_DATE":"2020-10-06","OBJECT_NAME":"STARLINK-1732","COUNTRY_CODE":"US","MEAN_MOTION":"15.06394571","GP_ID":"187443922","MEAN_ELEMENT_THEORY":"SGP4","PERIAPSIS":"545.983","NORAD_CAT_ID":"46584","ECCENTRICITY":"0.00018010","EPOCH":"2021-10-17T03:22:57.441504","APOAPSIS":"548.477","OBJECT_ID":"2020-070BE","MEAN_MOTION_DOT":"0.00004493","EPHEMERIS_TYPE":"0","MEAN_ANOMALY":"296.2359","FILE":"3168566","ARG_OF_PERICENTER":"63.8815","DECAY_DATE":null,"OBJECT_TYPE":"PAYLOAD","RA_OF_ASC_NODE":"159.7134","MEAN_MOTION_DDOT":"0.0000000000000","REV_AT_EPOCH":"5794","ELEMENT_SET_NO":"999","RCS_SIZE":"LARGE","TLE_LINE2":"2 46584  53.0531 159.7134 0001801  63.8815 296.2359 15.06394571 57949","PERIOD":"95.592","CENTER_NAME":"EARTH","SITE":"AFETR","TIME_SYSTEM":"UTC","REF_FRAME":"TEME","TLE_LINE1":"1 46584U 20070BE  21290.14094261  .00004493  00000-0  32036-3 0  9994","BSTAR":"0.00032036000000","SEMIMAJOR_AXIS":"6925.365"},{"SEMIMAJOR_AXIS":"6925.389","CENTER_NAME":"EARTH","PERIOD":"95.593","TLE_LINE2":"2 46585  53.0535 160.2407 0001613  77.5199 282.5970 15.06386916 57921","SITE":"AFETR","REF_FRAME":"TEME","TIME_SYSTEM":"UTC","BSTAR":"0.00003941800000","TLE_LINE1":"1 46585U 20070BF  21290.02668606  .00000305  00000-0  39418-4 0  9992","ELEMENT_SET_NO":"999","RCS_SIZE":"LARGE","OBJECT_TYPE":"PAYLOAD","RA_OF_ASC_NODE":"160.2407","MEAN_MOTION_DDOT":"0.0000000000000","REV_AT_EPOCH":"5792","APOAPSIS":"548.371","ECCENTRICITY":"0.00016130","EPOCH":"2021-10-17T00:38:25.675584","OBJECT_ID":"2020-070BF","EPHEMERIS_TYPE":"0","MEAN_ANOMALY":"282.5970","MEAN_MOTION_DOT":"0.00000305","DECAY_DATE":null,"FILE":"3168566","ARG_OF_PERICENTER":"77.5199","MEAN_MOTION":"15.06386916","GP_ID":"187444172","NORAD_CAT_ID":"46585","PERIAPSIS":"546.137","MEAN_ELEMENT_THEORY":"SGP4","LAUNCH_DATE":"2020-10-06","COUNTRY_CODE":"US","OBJECT_NAME":"STARLINK-1736","CLASSIFICATION_TYPE":"U","INCLINATION":"53.0535"},{"GP_ID":"187444924","PERIAPSIS":"546.025","NORAD_CAT_ID":"46586","MEAN_ELEMENT_THEORY":"SGP4","MEAN_MOTION":"15.06384399","MEAN_MOTION_DOT":"0.00001113","EPHEMERIS_TYPE":"0","MEAN_ANOMALY":"286.9063","ARG_OF_PERICENTER":"73.2121","FILE":"3168566","DECAY_DATE":null,"EPOCH":"2021-10-17T03:33:34.594848","ECCENTRICITY":"0.00017850","APOAPSIS":"548.498","OBJECT_ID":"2020-070BG","CLASSIFICATION_TYPE":"U","INCLINATION":"53.0542","OBJECT_NAME":"STARLINK-1737","COUNTRY_CODE":"US","LAUNCH_DATE":"2020-10-06","TIME_SYSTEM":"UTC","REF_FRAME":"TEME","TLE_LINE1":"1 46586U 20070BG  21290.14831707  .00001113  00000-0  93654-4 0  9990","BSTAR":"0.00009365400000","TLE_LINE2":"2 46586  53.0542 159.6886 0001785  73.2121 286.9063 15.06384399 57947","PERIOD":"95.593","CENTER_NAME":"EARTH","SITE":"AFETR","SEMIMAJOR_AXIS":"6925.396","MEAN_MOTION_DDOT":"0.0000000000000","REV_AT_EPOCH":"5794","OBJECT_TYPE":"PAYLOAD","RA_OF_ASC_NODE":"159.6886","ELEMENT_SET_NO":"999","RCS_SIZE":"LARGE"},{"REV_AT_EPOCH":"5793","MEAN_MOTION_DDOT":"0.0000000000000","OBJECT_TYPE":"PAYLOAD","RA_OF_ASC_NODE":"160.0605","RCS_SIZE":"LARGE","ELEMENT_SET_NO":"999","BSTAR":"0.00011936000000","TLE_LINE1":"1 46588U 20070BJ  21290.06355409  .00001496  00000-0  11936-3 0  9999","REF_FRAME":"TEME","TIME_SYSTEM":"UTC","SITE":"AFETR","PERIOD":"95.593","CENTER_NAME":"EARTH","TLE_LINE2":"2 46588  53.0532 160.0605 0001849  72.2926 287.8265 15.06382442 57936","SEMIMAJOR_AXIS":"6925.402","INCLINATION":"53.0532","CLASSIFICATION_TYPE":"U","COUNTRY_CODE":"US","OBJECT_NAME":"STARLINK-1746","LAUNCH_DATE":"2020-10-06","GP_ID":"187445674","PERIAPSIS":"545.987","NORAD_CAT_ID":"46588","MEAN_ELEMENT_THEORY":"SGP4","MEAN_MOTION":"15.06382442","DECAY_DATE":null,"ARG_OF_PERICENTER":"72.2926","FILE":"3168566","MEAN_ANOMALY":"287.8265","EPHEMERIS_TYPE":"0","MEAN_MOTION_DOT":"0.00001496","OBJECT_ID":"2020-070BJ","APOAPSIS":"548.548","EPOCH":"2021-10-17T01:31:31.073376","ECCENTRICITY":"0.00018490"},{"LAUNCH_DATE":"2020-10-06","OBJECT_NAME":"STARLINK-1749","COUNTRY_CODE":"US","CLASSIFICATION_TYPE":"U","INCLINATION":"53.0541","EPOCH":"2021-10-17T02:56:25.232064","ECCENTRICITY":"0.00017000","APOAPSIS":"548.411","OBJECT_ID":"2020-070BK","MEAN_MOTION_DOT":"0.00003786","MEAN_ANOMALY":"292.3244","EPHEMERIS_TYPE":"0","ARG_OF_PERICENTER":"67.7925","FILE":"3168566","DECAY_DATE":null,"MEAN_MOTION":"15.06393419","NORAD_CAT_ID":"46589","GP_ID":"187444422","PERIAPSIS":"546.056","MEAN_ELEMENT_THEORY":"SGP4","ELEMENT_SET_NO":"999","RCS_SIZE":"LARGE","OBJECT_TYPE":"PAYLOAD","RA_OF_ASC_NODE":"159.7975","MEAN_MOTION_DDOT":"0.0000000000000","REV_AT_EPOCH":"5793","SEMIMAJOR_AXIS":"6925.369","TLE_LINE2":"2 46589  53.0541 159.7975 0001700  67.7925 292.3244 15.06393419 57930","CENTER_NAME":"EARTH","PERIOD":"95.593","SITE":"AFETR","TIME_SYSTEM":"UTC","REF_FRAME":"TEME","TLE_LINE1":"1 46589U 20070BK  21290.12251426  .00003786  00000-0  27297-3 0  9992","BSTAR":"0.00027297000000"},{"INCLINATION":"53.0517","CLASSIFICATION_TYPE":"U","LAUNCH_DATE":"2020-10-06","OBJECT_NAME":"STARLINK-1754","COUNTRY_CODE":"US","MEAN_MOTION":"15.15458231","PERIAPSIS":"518.839","GP_ID":"187444672","NORAD_CAT_ID":"46590","MEAN_ELEMENT_THEORY":"SGP4","OBJECT_ID":"2020-070BL","EPOCH":"2021-10-17T03:00:52.064640","ECCENTRICITY":"0.00010880","APOAPSIS":"520.340","ARG_OF_PERICENTER":"99.2307","FILE":"3168566","DECAY_DATE":null,"MEAN_MOTION_DOT":"0.00166143","EPHEMERIS_TYPE":"0","MEAN_ANOMALY":"260.8809","OBJECT_TYPE":"PAYLOAD","RA_OF_ASC_NODE":"84.4129","REV_AT_EPOCH":"5899","MEAN_MOTION_DDOT":"0.0000000000000","RCS_SIZE":"LARGE","ELEMENT_SET_NO":"999","SITE":"AFETR","TLE_LINE2":"2 46590  53.0517  84.4129 0001088  99.2307 260.8809 15.15458231 58991","PERIOD":"95.021","CENTER_NAME":"EARTH","TLE_LINE1":"1 46590U 20070BL  21290.12560260  .00166143  00000-0  84976-2 0  9996","BSTAR":"0.00849760000000","TIME_SYSTEM":"UTC","REF_FRAME":"TEME","SEMIMAJOR_AXIS":"6897.725"}];
